[{"OBJECT_NAME":"PROTOMETHEE","OBJECT_ID":"2023-174BT","EPOCH":"2026-03-09T23:28:08.029344","MEAN_MOTION":15.30202663,"ECCENTRICITY":0.00088339,"INCLINATION":97.3826,"RA_OF_ASC_NODE":147.9552,"ARG_OF_PERICENTER":148.5993,"MEAN_ANOMALY":211.5776,"EPHEMERIS_TYPE":0,"CLASSIFICATION_TYPE":"U","NORAD_CAT_ID":58321,"ELEMENT_SET_NO":999,"REV_AT_EPOCH":12979,"BSTAR":0.00015715731,"MEAN_MOTION_DOT":4.52e-5,"MEAN_MOTION_DDOT":0},{"OBJECT_NAME":"STARLINK-31699","OBJECT_ID":"2024-074T","EPOCH":"2026-03-09T03:39:50.243040","MEAN_MOTION":15.27587018,"ECCENTRICITY":6.68e-5,"INCLINATION":43.0013,"RA_OF_ASC_NODE":346.4327,"ARG_OF_PERICENTER":316.005,"MEAN_ANOMALY":44.0749,"EPHEMERIS_TYPE":0,"CLASSIFICATION_TYPE":"U","NORAD_CAT_ID":59551,"ELEMENT_SET_NO":999,"REV_AT_EPOCH":10593,"BSTAR":-9.8611676e-5,"MEAN_MOTION_DOT":-2.975e-5,"MEAN_MOTION_DDOT":0}]
